1 45113U 19071C   23031.32010486  .00133333  00000-0  10560-2 0  9995
2 45113  51.6316   4.0677 0002360 346.3173  13.7760 15.70384801168804
1 45113U 19071C   23031.32010486  .00133333  00000-0  10560-2 0  9995
2 45113  51.6316   4.0677 0002360 346.3173  13.7760 15.70384801168804
1 45113U 19071C   23032.27456175  .00139575  00000-0  10920-2 0  9993
2 45113  51.6311 359.1909 0002173 349.0016  11.0934 15.70655649168950
1 45113U 19071C   23032.27456175  .00139575  00000-0  10920-2 0  9993
2 45113  51.6311 359.1909 0002173 349.0016  11.0934 15.70655649168950
1 45113U 19071C   23033.29246865  .00167964  00000-0  12926-2 0  9990
2 45113  51.6309 353.9877 0001899 352.1761   7.9207 15.70951556169111
1 45113U 19071C   23033.29246865  .00167964  00000-0  12926-2 0  9990
2 45113  51.6309 353.9877 0001899 352.1761   7.9207 15.70951556169111
1 45113U 19071C   23034.24657824  .00144733  00000-0  11047-2 0  9999
2 45113  51.6305 349.1086 0001671 355.8355   4.2628 15.71228424169268
1 45113U 19071C   23034.24657824  .00144733  00000-0  11047-2 0  9999
2 45113  51.6305 349.1086 0001671 355.8355   4.2628 15.71228424169268
1 45113U 19071C   23035.26410558  .00164912  00000-0  12384-2 0  9999
2 45113  51.6308 343.9027 0001326 359.0502   1.0493 15.71545984169421
1 45113U 19071C   23036.21784349  .00148283  00000-0  11020-2 0  9996
2 45113  51.6311 339.0210 0001084   3.3816 356.7190 15.71850220169575
1 45113U 19071C   23036.21784349  .00148283  00000-0  11020-2 0  9996
2 45113  51.6311 339.0210 0001084   3.3816 356.7190 15.71850220169575
1 45113U 19071C   23037.10783512  .00164161  00000-0  12027-2 0  9997
2 45113  51.6313 334.4643 0000849   1.2528 358.8472 15.72133545169718
1 45113U 19071C   23037.23496285  .00183957  00000-0  13410-2 0  9990
2 45113  51.6314 333.8131 0000766   2.9422 357.1581 15.72186062169730
1 45113U 19071C   23037.23496285  .00183957  00000-0  13410-2 0  9990
2 45113  51.6314 333.8131 0000766   2.9422 357.1581 15.72186062169730
1 45113U 19071C   23038.18829152  .00221015  00000-0  15768-2 0  9994
2 45113  51.6317 328.9282 0000666   2.1762 357.9239 15.72575671169885
1 45113U 19071C   23038.18829152  .00221015  00000-0  15768-2 0  9994
2 45113  51.6317 328.9282 0000666   2.1762 357.9239 15.72575671169885
1 45113U 19071C   23039.20489613  .00232003  00000-0  16202-2 0  9995
2 45113  51.6306 323.7171 0000325 348.5328  11.5663 15.73042990170048
1 45113U 19071C   23039.20489613  .00232003  00000-0  16202-2 0  9995
2 45113  51.6306 323.7171 0000325 348.5328  11.5663 15.73042990170048
1 45113U 19071C   23040.15768124  .00251197  00000-0  17158-2 0  9994
2 45113  51.6304 318.8289 0000206 303.9285  56.1694 15.73502255170196
1 45113U 19071C   23040.15768124  .00251197  00000-0  17158-2 0  9994
2 45113  51.6304 318.8289 0000206 303.9285  56.1694 15.73502255170196
1 45113U 19071C   23041.11017957  .00269447  00000-0  17983-2 0  9995
2 45113  51.6297 313.9389 0000343 244.1190 115.9773 15.73987234170340
1 45113U 19071C   23041.11017957  .00269447  00000-0  17983-2 0  9995
2 45113  51.6297 313.9389 0000343 244.1190 115.9773 15.73987234170340
1 45113U 19071C   23041.93542991  .00280085  00000-0  18309-2 0  9990
2 45113  51.6298 309.6989 0000584 239.9774 120.1167 15.74437395170474
1 45113U 19071C   23041.99890099  .00289544  00000-0  18873-2 0  9996
2 45113  51.6297 309.3727 0000598 238.2760 121.8181 15.74475930170484
1 45113U 19071C   23042.76044315  .00275642  00000-0  17680-2 0  9993
2 45113  51.6290 305.4573 0000781 235.7653 124.3272 15.74889013170604
1 45113U 19071C   23043.01424496  .00266309  00000-0  16998-2 0  9995
2 45113  51.6287 304.1519 0000898 233.3984 126.6933 15.75029458170649
1 45113U 19071C   23043.01424496  .00266309  00000-0  16998-2 0  9995
2 45113  51.6287 304.1519 0000898 233.3984 126.6933 15.75029458170649
1 45113U 19071C   23043.71208858  .00283838  00000-0  17783-2 0  9993
2 45113  51.6291 300.5619 0001147 229.2517 130.8383 15.75405513170757
1 45113U 19071C   23044.40976336  .00275126  00000-0  16974-2 0  9995
2 45113  51.6287 296.9696 0001331 233.5795 126.5082 15.75783468170864
1 45113U 19071C   23044.72683505  .00266569  00000-0  16347-2 0  9998
2 45113  51.6286 295.3367 0001444 234.6716 125.4148 15.75946453170913
1 45113U 19071C   23045.10727638  .00272762  00000-0  16566-2 0  9992
2 45113  51.6285 293.3767 0001601 235.1074 124.9775 15.76148673170977
1 45113U 19071C   23045.67784838  .00291510  00000-0  17428-2 0  9999
2 45113  51.6287 290.4361 0001860 240.0351 120.0464 15.76452622171062
1 45113U 19071C   23045.67784838  .00291510  00000-0  17428-2 0  9999
2 45113  51.6287 290.4361 0001860 240.0351 120.0464 15.76452622171062
1 45113U 19071C   23045.93140057  .00268685  00000-0  16019-2 0  9999
2 45113  51.6289 289.1290 0001908 241.2408 118.8401 15.76581342171102
1 45113U 19071C   23045.93140057  .00268685  00000-0  16019-2 0  9999
2 45113  51.6289 289.1290 0001908 241.2408 118.8401 15.76581342171102
1 45113U 19071C   23046.88201502  .00332167  00000-0  19153-2 0  9996
2 45113  51.6286 284.2258 0002105 245.6489 114.4292 15.77156183171254
1 45113U 19071C   23046.88201502  .00332167  00000-0  19153-2 0  9996
2 45113  51.6286 284.2258 0002105 245.6489 114.4292 15.77156183171254
1 45113U 19071C   23047.64224316  .00335674  00000-0  18932-2 0  9999
2 45113  51.6287 280.3017 0002270 249.4260 110.6497 15.77644106171372
1 45113U 19071C   23048.02226979  .00312994  00000-0  17516-2 0  9996
2 45113  51.6282 278.3385 0002430 251.5182 108.5554 15.77882000171431
1 45113U 19071C   23048.33891746  .00274632  00000-0  15326-2 0  9993
2 45113  51.6280 276.7026 0002513 252.9752 107.0973 15.78052827171484
1 45113U 19071C   23048.33891746  .00274632  00000-0  15326-2 0  9993
2 45113  51.6280 276.7026 0002513 252.9752 107.0973 15.78052827171484
1 45113U 19071C   23048.84548341  .00259718  00000-0  14349-2 0  9991
2 45113  51.6275 274.0850 0002799 254.4762 105.5929 15.78318827171566
1 45113U 19071C   23048.84548341  .00259718  00000-0  14349-2 0  9991
2 45113  51.6275 274.0850 0002799 254.4762 105.5929 15.78318827171566
1 45113U 19071C   23049.85837662  .00238122  00000-0  12909-2 0  9996
2 45113  51.6274 268.8474 0003031 261.1965  98.8692 15.78801380171728
1 45113U 19071C   23050.61784112  .00239736  00000-0  12779-2 0  9990
2 45113  51.6265 264.9177 0003249 265.5836  94.4794 15.79170005171843
1 45113U 19071C   23050.61784112  .00239736  00000-0  12779-2 0  9990
2 45113  51.6265 264.9177 0003249 265.5836  94.4794 15.79170005171843
1 45113U 19071C   23051.56691895  .00262176  00000-0  13640-2 0  9992
2 45113  51.6267 260.0040 0003500 271.3283  88.7318 15.79641614171995
1 45113U 19071C   23051.94647045  .00247285  00000-0  12779-2 0  9998
2 45113  51.6263 258.0379 0003664 274.1162  85.9420 15.79830747172059
1 45113U 19071C   23052.57894896  .00292216  00000-0  14776-2 0  9999
2 45113  51.6257 254.7601 0003879 278.4235  81.6327 15.80182752172157
1 45113U 19071C   23052.57894896  .00292216  00000-0  14776-2 0  9999
2 45113  51.6257 254.7601 0003879 278.4235  81.6327 15.80182752172157
1 45113U 19071C   23052.83189859  .00293942  00000-0  14756-2 0  9999
2 45113  51.6258 253.4491 0004018 279.3485  80.7063 15.80336050172197
1 45113U 19071C   23052.83189859  .00293942  00000-0  14756-2 0  9999
2 45113  51.6258 253.4491 0004018 279.3485  80.7063 15.80336050172197
1 45113U 19071C   23053.59061225  .00271534  00000-0  13409-2 0  9996
2 45113  51.6257 249.5134 0004305 284.2902  75.7621 15.80754394172317
1 45113U 19071C   23053.59061225  .00271534  00000-0  13409-2 0  9996
2 45113  51.6257 249.5134 0004305 284.2902  75.7621 15.80754394172317
1 45113U 19071C   23054.53871529  .00334468  00000-0  15966-2 0  9993
2 45113  51.6253 244.5918 0004592 289.8416  70.2091 15.81320582172463
1 45113U 19071C   23054.53871529  .00334468  00000-0  15966-2 0  9993
2 45113  51.6253 244.5918 0004592 289.8416  70.2091 15.81320582172463
1 45113U 19071C   23054.79148679  .00306934  00000-0  14610-2 0  9996
2 45113  51.6255 243.2789 0004667 291.0668  68.9834 15.81454912172503
1 45113U 19071C   23054.79148679  .00306934  00000-0  14610-2 0  9996
2 45113  51.6255 243.2789 0004667 291.0668  68.9834 15.81454912172503
1 45113U 19071C   23055.23377500  .00332045  00000-0  15546-2 0  9994
2 45113  51.6257 240.9815 0004860 294.4307  65.6188 15.81744662172578
1 45113U 19071C   23055.54964831  .00282857  00000-0  13213-2 0  9991
2 45113  51.6258 239.3400 0004945 296.3644  63.6850 15.81923484172621
1 45113U 19071C   23055.54964831  .00282857  00000-0  13213-2 0  9991
2 45113  51.6258 239.3400 0004945 296.3644  63.6850 15.81923484172621
1 45113U 19071C   23055.73915406  .00276739  00000-0  12871-2 0  9997
2 45113  51.6260 238.3551 0005059 296.7705  63.2779 15.82032888172658
1 45113U 19071C   23056.74963598  .00305746  00000-0  13787-2 0  9992
2 45113  51.6271 233.1006 0005474 303.1147  56.9329 15.82616454172817
1 45113U 19071C   23056.74963598  .00305746  00000-0  13787-2 0  9992
2 45113  51.6271 233.1006 0005474 303.1147  56.9329 15.82616454172817
1 45113U 19071C   23057.19159689  .00353949  00000-0  15640-2 0  9998
2 45113  51.6271 230.8010 0005609 305.8757  54.1725 15.82923586172886
1 45113U 19071C   23057.50723008  .00371436  00000-0  16202-2 0  9991
2 45113  51.6262 229.1584 0005735 307.2522  52.7957 15.83153006172939
1 45113U 19071C   23057.88593288  .00336198  00000-0  14555-2 0  9992
2 45113  51.6256 227.1867 0006022 308.3712  51.6749 15.83400809172996
1 45113U 19071C   23058.45385640  .00467444  00000-0  19466-2 0  9992
2 45113  51.6257 224.2279 0006266 311.7519  48.2948 15.83890241173082
1 45113U 19071C   23058.45385640  .00467444  00000-0  19466-2 0  9992
2 45113  51.6257 224.2279 0006266 311.7519  48.2948 15.83890241173082
1 45113U 19071C   23058.64312041  .00557464  00000-0  22735-2 0  9993
2 45113  51.6258 223.2415 0006287 312.5455  47.5017 15.84107827173110
1 45113U 19071C   23059.14771038  .00529383  00000-0  21138-2 0  9999
2 45113  51.6252 220.6096 0006439 315.3062  44.7422 15.84620441173193
